NORAD_CAT_ID,OBJECT_NAME,OBJECT_TYPE,EPOCH,MEAN_MOTION,ECCENTRICITY,INCLINATION,RA_OF_ASC_NODE,ARG_OF_PERICENTER,MEAN_ANOMALY,BSTAR,MEAN_MOTION_DOT,MEAN_MOTION_DDOT,TLE_LINE0,TLE_LINE1,TLE_LINE2,SEMIMAJOR_AXIS,PERIOD,APOGEE,PERIGEE,DECAYED
55425.0,STARLINK-5615,PAYLOAD,2023-06-21 02:49:57,14.98335546,0.0002988,70.0001,67.118,267.5285,92.5532,6.783e-05,7.17e-06,0.0,0 STARLINK-5615,1 55425U 23014AL  23172.11802848  .00000717  00000-0  67830-4 0  9991,2 55425  70.0001  67.1180 0002988 267.5285  92.5532 14.98335546 21946,6950.176,96.107,574.117,569.964,0.0
55425.0,STARLINK-5615,PAYLOAD,2023-06-21 10:50:38,14.98323805,0.0002932,70.0003,66.2765,272.7391,87.3432,8.9012e-05,9.69e-06,0.0,0 STARLINK-5615,1 55425U 23014AL  23172.45183470  .00000969  00000-0  89012-4 0  9996,2 55425  70.0003  66.2765 0002932 272.7391  87.3432 14.98323805 21993,6950.212,96.107,574.115,570.039,0.0
55425.0,STARLINK-5615,PAYLOAD,2023-06-21 20:27:26,14.983233,0.0002951,70.0004,65.2666,268.8384,91.2437,3.4532e-05,3.19e-06,0.0,0 STARLINK-5615,1 55425U 23014AL  23172.85239516  .00000319  00000-0  34532-4 0  9999,2 55425  70.0004  65.2666 0002951 268.8384  91.2437 14.98323300 22992,6950.214,96.107,574.13,570.028,0.0
55425.0,STARLINK-5615,PAYLOAD,2023-06-22 18:53:19,14.98334088,0.0003002,70.0004,62.9098,268.241,91.8405,-7.6045e-05,-1e-05,0.0,0 STARLINK-5615,1 55425U 23014AL  23173.78703109 -.00001000  00000-0 -76045-4 0  9991,2 55425  70.0004  62.9098 0003002 268.2410  91.8405 14.98334088 22195,6950.18,96.107,574.132,569.959,0.0
55425.0,STARLINK-5615,PAYLOAD,2023-06-23 01:17:50,14.98368248,0.0003081,70.0004,62.2366,265.5745,94.5062,-0.0006162,-7.445e-05,0.0,0 STARLINK-5615,1 55425U 23014AL  23174.05406179 -.00007445  00000-0 -61620-3 0  9990,2 55425  70.0004  62.2366 0003081 265.5745  94.5062 14.98368248 22233,6950.075,96.105,574.081,569.798,0.0
55425.0,STARLINK-5615,PAYLOAD,2023-06-23 09:18:31,14.98357355,0.0003181,70.0003,61.395,271.9055,88.1739,-0.00052087,-6.307e-05,0.0,0 STARLINK-5615,1 55425U 23014AL  23174.38786428 -.00006307  00000-0 -52087-3 0  9997,2 55425  70.0003  61.3950 0003181 271.9055  88.1739 14.98357355 22289,6950.108,96.105,574.184,569.762,0.0
55425.0,STARLINK-5615,PAYLOAD,2023-06-23 18:55:20,14.98326622,0.0003005,70.0002,60.3851,267.5063,92.5752,-1.2594e-06,-1.08e-06,0.0,0 STARLINK-5615,1 55425U 23014AL  23174.78843282 -.00000108  00000-0 -12594-5 0  9997,2 55425  70.0002  60.3851 0003005 267.5063  92.5752 14.98326622 22346,6950.203,96.107,574.157,569.98,0.0
55425.0,STARLINK-5615,PAYLOAD,2023-06-25 01:21:53,14.98331692,0.0002966,70.0003,57.1869,268.9614,91.1205,1.7724e-05,1.19e-06,0.0,0 STARLINK-5615,1 55425U 23014AL  23176.05686928  .00000119  00000-0  17724-4 0  9990,2 55425  70.0003  57.1869 0002966 268.9614  91.1205 14.98331692 22534,6950.188,96.107,574.114,569.991,0.0
55425.0,STARLINK-5615,PAYLOAD,2023-06-26 01:23:54,14.98332268,0.000302,70.0,54.6619,267.8558,92.2255,2.6078e-05,2.18e-06,0.0,0 STARLINK-5615,1 55425U 23014AL  23177.05826713  .00000218  00000-0  26078-4 0  9991,2 55425  70.0000  54.6619 0003020 267.8558  92.2255 14.98332268 22686,6950.186,96.107,574.15,569.952,0.0
55425.0,STARLINK-5615,PAYLOAD,2023-06-26 15:49:07,14.98319274,0.0003287,69.9996,53.1448,268.0516,92.0267,2.1063e-05,1.58e-06,0.0,0 STARLINK-5615,1 55425U 23014AL  23177.65911448  .00000158  00000-0  21063-4 0  9999,2 55425  69.9996  53.1448 0003287 268.0516  92.0267 14.98319274 22776,6950.226,96.108,574.376,569.807,0.0
55425.0,STARLINK-5615,PAYLOAD,2023-06-27 09:26:35,14.98336849,0.0003249,69.9998,51.2954,267.1507,92.928,-0.00020218,-2.505e-05,0.0,0 STARLINK-5615,1 55425U 23014AL  23178.39347072 -.00002505  00000-0 -20218-3 0  9997,2 55425  69.9998  51.2954 0003249 267.1507  92.9280 14.98336849 22880,6950.172,96.107,574.295,569.779,0.0
55425.0,STARLINK-5615,PAYLOAD,2023-06-28 17:29:17,14.9832614,0.000305,70.0,47.9283,269.6684,90.4126,6.9755e-05,7.39e-06,0.0,0 STARLINK-5615,1 55425U 23014AL  23179.72867072  .00000739  00000-0  69755-4 0  9997,2 55425  70.0000  47.9283 0003050 269.6684  90.4126 14.98326140 23085,6950.205,96.107,574.19,569.95,0.0
55425.0,STARLINK-5615,PAYLOAD,2023-06-29 19:07:26,14.98332859,0.0003004,70.0001,45.2354,269.8763,90.2052,-3.173e-05,-4.72e-06,0.0,0 STARLINK-5615,1 55425U 23014AL  23180.79682944 -.00000472  00000-0 -31730-4 0  9997,2 55425  70.0001  45.2354 0003004 269.8763  90.2052 14.98332859 23243,6950.184,96.107,574.137,569.961,0.0
55425.0,STARLINK-5615,PAYLOAD,2023-07-01 01:33:59,14.98318653,0.0003054,70.0001,42.037,269.0279,91.053,0.00018469,2.111e-05,0.0,0 STARLINK-5615,1 55425U 23014AL  23182.06527228  .00002111  00000-0  18469-3 0  9995,2 55425  70.0001  42.0370 0003054 269.0279  91.0530 14.98318653 23432,6950.228,96.108,574.216,569.97,0.0
55425.0,STARLINK-5615,PAYLOAD,2023-07-01 17:35:19,14.98331825,0.0003046,70.0001,40.3537,270.3913,89.6897,6.1706e-06,-1.9e-07,0.0,0 STARLINK-5615,1 55425U 23014AL  23182.73286730 -.00000019  00000-0  61706-5 0  9999,2 55425  70.0001  40.3537 0003046 270.3913  89.6897 14.98331825 23535,6950.187,96.107,574.169,569.935,0.0
55425.0,STARLINK-5615,PAYLOAD,2023-07-03 00:01:52,14.98329823,0.0003104,70.0,37.1548,269.5875,90.4928,3.0674e-05,2.73e-06,0.0,0 STARLINK-5615,1 55425U 23014AL  23184.00130662  .00000273  00000-0  30674-4 0  9993,2 55425  70.0000  37.1548 0003104 269.5875  90.4928 14.98329823 23723,6950.193,96.107,574.216,569.901,0.0
55425.0,STARLINK-5615,PAYLOAD,2023-07-04 00:03:53,14.9833162,0.0003141,70.0,34.6302,270.2632,89.8167,-8.3709e-06,-1.93e-06,0.0,0 STARLINK-5615,1 55425U 23014AL  23185.00270564 -.00000193  00000-0 -83709-5 0  9991,2 55425  70.0000  34.6302 0003141 270.2632  89.8167 14.98331620 23875,6950.188,96.107,574.236,569.87,0.0
55425.0,STARLINK-5615,PAYLOAD,2023-07-05 00:05:54,14.98332667,0.0003162,69.9999,32.1053,270.2181,89.8615,1.8699e-05,1.3e-06,0.0,0 STARLINK-5615,1 55425U 23014AL  23186.00410324  .00000130  00000-0  18699-4 0  9996,2 55425  69.9999  32.1053 0003162 270.2181  89.8615 14.98332667 24025,6950.185,96.107,574.247,569.852,0.0
55425.0,STARLINK-5615,PAYLOAD,2023-07-06 00:07:55,14.98328812,0.0003166,70.0002,29.5805,271.1747,88.9049,1.4621e-05,8.1e-07,0.0,0 STARLINK-5615,1 55425U 23014AL  23187.00550550  .00000081  00000-0  14621-4 0  9999,2 55425  70.0002  29.5805 0003166 271.1747  88.9049 14.98328812 24174,6950.197,96.107,574.262,569.861,0.0
55425.0,STARLINK-5615,PAYLOAD,2023-07-07 00:09:56,14.98332353,0.0003139,70.0001,27.0553,269.9468,90.1331,8.494e-06,8e-08,0.0,0 STARLINK-5615,1 55425U 23014AL  23188.00690271  .00000008  00000-0  84940-5 0  9996,2 55425  70.0001  27.0553 0003139 269.9468  90.1331 14.98332353 24322,6950.186,96.107,574.232,569.869,0.0
55425.0,STARLINK-5615,PAYLOAD,2023-07-08 06:36:29,14.98330976,0.0003166,70.0,23.8567,268.7614,91.3182,1.0851e-05,3.6e-07,0.0,0 STARLINK-5615,1 55425U 23014AL  23189.27534246  .00000036  00000-0  10851-4 0  9995,2 55425  70.0000  23.8567 0003166 268.7614  91.3182 14.98330976 24517,6950.19,96.107,574.255,569.854,0.0
55425.0,STARLINK-5615,PAYLOAD,2023-07-09 13:03:03,14.98326029,0.0003228,69.9998,20.6588,269.2196,90.8593,-3.0715e-05,-4.59e-06,0.0,0 STARLINK-5615,1 55425U 23014AL  23190.54378614 -.00000459  00000-0 -30715-4 0  9994,2 55425  69.9998  20.6588 0003228 269.2196  90.8593 14.98326029 24703,6950.205,96.107,574.314,569.827,0.0
55425.0,STARLINK-5615,PAYLOAD,2023-07-10 19:29:36,14.98331004,0.000322,69.9999,17.4605,268.9623,91.1168,1.1569e-05,4.5e-07,0.0,0 STARLINK-5615,1 55425U 23014AL  23191.81222225  .00000045  00000-0  11569-4 0  9996,2 55425  69.9999  17.4605 0003220 268.9623  91.1168 14.98331004 24892,6950.19,96.107,574.293,569.817,0.0
55425.0,STARLINK-5615,PAYLOAD,2023-07-11 22:43:52,14.98333369,0.0003182,70.0003,14.5986,269.157,90.9224,6.5723e-05,6.91e-06,0.0,0 STARLINK-5615,1 55425U 23014AL  23192.94713813  .00000691  00000-0  65723-4 0  9997,2 55425  70.0003  14.5986 0003182 269.1570  90.9224 14.98333369 25068,6950.182,96.107,574.259,569.836,0.0
55425.0,STARLINK-5615,PAYLOAD,2023-07-12 17:57:29,14.98330119,0.0003088,70.0007,12.5789,269.1948,90.8858,-2.6551e-05,-4.1e-06,0.0,0 STARLINK-5615,1 55425U 23014AL  23193.74826216 -.00000410  00000-0 -26551-4 0  9995,2 55425  70.0007  12.5789 0003088 269.1948  90.8858 14.98330119 25180,6950.193,96.107,574.204,569.911,0.0
55425.0,STARLINK-5615,PAYLOAD,2023-07-13 17:59:30,14.98331818,0.0003187,70.0003,10.0528,266.4321,93.6474,-3.6864e-05,-5.33e-06,0.0,0 STARLINK-5615,1 55425U 23014AL  23194.74966042 -.00000533  00000-0 -36864-4 0  9992,2 55425  70.0003  10.0528 0003187 266.4321  93.6474 14.98331818 25334,6950.187,96.107,574.267,569.837,0.0
55425.0,STARLINK-5615,PAYLOAD,2023-07-14 18:01:31,14.98332491,0.000328,70.0001,7.5284,269.7644,90.3139,6.9604e-06,-1e-07,0.0,0 STARLINK-5615,1 55425U 23014AL  23195.75105888 -.00000010  00000-0  69604-5 0  9995,2 55425  70.0001   7.5284 0003280 269.7644  90.3139 14.98332491 25486,6950.185,96.107,574.33,569.771,0.0
55425.0,STARLINK-5615,PAYLOAD,2023-07-15 10:02:52,14.98324956,0.0003356,70.0,5.8459,272.39,87.6875,9.544e-06,2.1e-07,0.0,0 STARLINK-5615,1 55425U 23014AL  23196.41866291  .00000021  00000-0  95440-5 0  9999,2 55425  70.0000   5.8459 0003356 272.3900  87.6875 14.98324956 25583,6950.208,96.107,574.406,569.741,0.0
55425.0,STARLINK-5615,PAYLOAD,2023-07-16 10:04:53,14.98331644,0.0003004,70.0004,3.3206,268.9336,91.1479,-7.6445e-05,-1.005e-05,0.0,0 STARLINK-5615,1 55425U 23014AL  23197.42006282 -.00001005  00000-0 -76445-4 0  9995,2 55425  70.0004   3.3206 0003004 268.9336  91.1479 14.98331644 25733,6950.188,96.107,574.141,569.965,0.0
55425.0,STARLINK-5615,PAYLOAD,2023-07-16 21:17:50,14.98312411,0.0002741,70.0006,2.1425,263.5839,96.5008,0.00029867,3.471e-05,0.0,0 STARLINK-5615,1 55425U 23014AL  23197.88738599  .00003471  00000-0  29867-3 0  9990,2 55425  70.0006   2.1425 0002741 263.5839  96.5008 14.98312411 25807,6950.247,96.108,574.017,570.207,0.0
